[
    {
        "OBJECT_NAME": "COSMOS 1651 [GLONASS]",
        "OBJECT_ID": "1985-037B",
        "EPOCH": "2026-06-20T07:32:49.800192",
        "MEAN_MOTION": 2.1312329,
        "ECCENTRICITY": 0.0015235,
        "INCLINATION": 64.8811,
        "RA_OF_ASC_NODE": 72.7313,
        "ARG_OF_PERICENTER": 25.993,
        "MEAN_ANOMALY": 115.1652,
        "EPHEMERIS_TYPE": 0,
        "CLASSIFICATION_TYPE": "U",
        "NORAD_CAT_ID": 15698,
        "ELEMENT_SET_NO": 999,
        "REV_AT_EPOCH": 31985,
        "BSTAR": 0,
        "MEAN_MOTION_DOT": -4.1e-07,
        "MEAN_MOTION_DDOT": 0
    },
    {
        "OBJECT_NAME": "COSMOS 1652 [GLONASS]",
        "OBJECT_ID": "1985-037C",
        "EPOCH": "2026-06-17T05:39:38.971872",
        "MEAN_MOTION": 2.13067285,
        "ECCENTRICITY": 0.0018613,
        "INCLINATION": 64.8732,
        "RA_OF_ASC_NODE": 73.129,
        "ARG_OF_PERICENTER": 26.7132,
        "MEAN_ANOMALY": 94.6013,
        "EPHEMERIS_TYPE": 0,
        "CLASSIFICATION_TYPE": "U",
        "NORAD_CAT_ID": 15699,
        "ELEMENT_SET_NO": 999,
        "REV_AT_EPOCH": 31966,
        "BSTAR": 0,
        "MEAN_MOTION_DOT": -2.1e-07,
        "MEAN_MOTION_DDOT": 0
    },
    {
        "OBJECT_NAME": "COSMOS 1710 [GLONASS]",
        "OBJECT_ID": "1985-118A",
        "EPOCH": "2026-06-18T08:18:15.384096",
        "MEAN_MOTION": 2.13103064,
        "ECCENTRICITY": 0.001345,
        "INCLINATION": 66.0459,
        "RA_OF_ASC_NODE": 324.2052,
        "ARG_OF_PERICENTER": 198.6834,
        "MEAN_ANOMALY": 200.925,
        "EPHEMERIS_TYPE": 0,
        "CLASSIFICATION_TYPE": "U",
        "NORAD_CAT_ID": 16396,
        "ELEMENT_SET_NO": 999,
        "REV_AT_EPOCH": 31515,
        "BSTAR": 0,
        "MEAN_MOTION_DOT": -5.9e-07,
        "MEAN_MOTION_DDOT": 0
    },
    {
        "OBJECT_NAME": "COSMOS 1711 [GLONASS]",
        "OBJECT_ID": "1985-118B",
        "EPOCH": "2026-06-18T09:14:06.505728",
        "MEAN_MOTION": 2.13101084,
        "ECCENTRICITY": 0.0009304,
        "INCLINATION": 66.0628,
        "RA_OF_ASC_NODE": 324.4141,
        "ARG_OF_PERICENTER": 181.8768,
        "MEAN_ANOMALY": 218.498,
        "EPHEMERIS_TYPE": 0,
        "CLASSIFICATION_TYPE": "U",
        "NORAD_CAT_ID": 16397,
        "ELEMENT_SET_NO": 999,
        "REV_AT_EPOCH": 31478,
        "BSTAR": 0,
        "MEAN_MOTION_DOT": -5.9e-07,
        "MEAN_MOTION_DDOT": 0
    },
    {
        "OBJECT_NAME": "COSMOS 1712 [GLONASS]",
        "OBJECT_ID": "1985-118C",
        "EPOCH": "2026-06-18T09:14:38.686272",
        "MEAN_MOTION": 2.1291977,
        "ECCENTRICITY": 0.0010516,
        "INCLINATION": 66.0595,
        "RA_OF_ASC_NODE": 325.0102,
        "ARG_OF_PERICENTER": 13.1331,
        "MEAN_ANOMALY": 28.8011,
        "EPHEMERIS_TYPE": 0,
        "CLASSIFICATION_TYPE": "U",
        "NORAD_CAT_ID": 16398,
        "ELEMENT_SET_NO": 999,
        "REV_AT_EPOCH": 31407,
        "BSTAR": 0,
        "MEAN_MOTION_DOT": -5.9e-07,
        "MEAN_MOTION_DDOT": 0
    },
    {
        "OBJECT_NAME": "COSMOS 1778 [GLONASS]",
        "OBJECT_ID": "1986-071A",
        "EPOCH": "2026-06-20T08:53:38.568192",
        "MEAN_MOTION": 2.13102639,
        "ECCENTRICITY": 0.0003857,
        "INCLINATION": 64.897,
        "RA_OF_ASC_NODE": 72.2305,
        "ARG_OF_PERICENTER": 226.7678,
        "MEAN_ANOMALY": 273.8476,
        "EPHEMERIS_TYPE": 0,
        "CLASSIFICATION_TYPE": "U",
        "NORAD_CAT_ID": 16961,
        "ELEMENT_SET_NO": 999,
        "REV_AT_EPOCH": 30944,
        "BSTAR": 0,
        "MEAN_MOTION_DOT": -4.2e-07,
        "MEAN_MOTION_DDOT": 0
    },
    {
        "OBJECT_NAME": "COSMOS 1779 [GLONASS]",
        "OBJECT_ID": "1986-071B",
        "EPOCH": "2026-06-20T08:26:56.930784",
        "MEAN_MOTION": 2.13102733,
        "ECCENTRICITY": 0.0014084,
        "INCLINATION": 64.9001,
        "RA_OF_ASC_NODE": 72.3051,
        "ARG_OF_PERICENTER": 44.0515,
        "MEAN_ANOMALY": 133.4046,
        "EPHEMERIS_TYPE": 0,
        "CLASSIFICATION_TYPE": "U",
        "NORAD_CAT_ID": 16962,
        "ELEMENT_SET_NO": 999,
        "REV_AT_EPOCH": 30931,
        "BSTAR": 0,
        "MEAN_MOTION_DOT": -4.1e-07,
        "MEAN_MOTION_DDOT": 0
    },
    {
        "OBJECT_NAME": "COSMOS 1780 [GLONASS]",
        "OBJECT_ID": "1986-071C",
        "EPOCH": "2026-06-20T07:57:53.356320",
        "MEAN_MOTION": 2.13107743,
        "ECCENTRICITY": 0.0003448,
        "INCLINATION": 64.8904,
        "RA_OF_ASC_NODE": 72.0097,
        "ARG_OF_PERICENTER": 339.147,
        "MEAN_ANOMALY": 205.7542,
        "EPHEMERIS_TYPE": 0,
        "CLASSIFICATION_TYPE": "U",
        "NORAD_CAT_ID": 16963,
        "ELEMENT_SET_NO": 999,
        "REV_AT_EPOCH": 30939,
        "BSTAR": 0,
        "MEAN_MOTION_DOT": -4.2e-07,
        "MEAN_MOTION_DDOT": 0
    },
    {
        "OBJECT_NAME": "COSMOS 1883 [GLONASS]",
        "OBJECT_ID": "1987-079A",
        "EPOCH": "2026-06-18T08:58:56.207424",
        "MEAN_MOTION": 2.13100957,
        "ECCENTRICITY": 0.0004404,
        "INCLINATION": 65.5935,
        "RA_OF_ASC_NODE": 318.697,
        "ARG_OF_PERICENTER": 243.2707,
        "MEAN_ANOMALY": 136.6804,
        "EPHEMERIS_TYPE": 0,
        "CLASSIFICATION_TYPE": "U",
        "NORAD_CAT_ID": 18355,
        "ELEMENT_SET_NO": 999,
        "REV_AT_EPOCH": 30156,
        "BSTAR": 0,
        "MEAN_MOTION_DOT": -5.7e-07,
        "MEAN_MOTION_DDOT": 0
    },
    {
        "OBJECT_NAME": "COSMOS 1884 [GLONASS]",
        "OBJECT_ID": "1987-079B",
        "EPOCH": "2026-06-15T00:15:16.137216",
        "MEAN_MOTION": 2.13102966,
        "ECCENTRICITY": 0.00205852,
        "INCLINATION": 65.623,
        "RA_OF_ASC_NODE": 319.1592,
        "ARG_OF_PERICENTER": 206.1691,
        "MEAN_ANOMALY": 191.7097,
        "EPHEMERIS_TYPE": 0,
        "CLASSIFICATION_TYPE": "U",
        "NORAD_CAT_ID": 18356,
        "ELEMENT_SET_NO": 999,
        "REV_AT_EPOCH": 30162,
        "BSTAR": 0,
        "MEAN_MOTION_DOT": -5.5e-07,
        "MEAN_MOTION_DDOT": 0
    },
    {
        "OBJECT_NAME": "COSMOS 1885 [GLONASS]",
        "OBJECT_ID": "1987-079C",
        "EPOCH": "2026-06-13T22:08:02.023296",
        "MEAN_MOTION": 2.1310237,
        "ECCENTRICITY": 0.0023715,
        "INCLINATION": 65.6186,
        "RA_OF_ASC_NODE": 319.1251,
        "ARG_OF_PERICENTER": 207.5303,
        "MEAN_ANOMALY": 149.6131,
        "EPHEMERIS_TYPE": 0,
        "CLASSIFICATION_TYPE": "U",
        "NORAD_CAT_ID": 18357,
        "ELEMENT_SET_NO": 999,
        "REV_AT_EPOCH": 28506,
        "BSTAR": 0,
        "MEAN_MOTION_DOT": -5.3e-07,
        "MEAN_MOTION_DDOT": 0
    },
    {
        "OBJECT_NAME": "COSMOS 1946 [GLONASS]",
        "OBJECT_ID": "1988-043A",
        "EPOCH": "2026-06-20T07:47:30.564384",
        "MEAN_MOTION": 2.13102923,
        "ECCENTRICITY": 0.0004453,
        "INCLINATION": 64.969,
        "RA_OF_ASC_NODE": 73.504,
        "ARG_OF_PERICENTER": 79.2207,
        "MEAN_ANOMALY": 103.7568,
        "EPHEMERIS_TYPE": 0,
        "CLASSIFICATION_TYPE": "U",
        "NORAD_CAT_ID": 19163,
        "ELEMENT_SET_NO": 999,
        "REV_AT_EPOCH": 29566,
        "BSTAR": 0,
        "MEAN_MOTION_DOT": -3.9e-07,
        "MEAN_MOTION_DDOT": 0
    },
    {
        "OBJECT_NAME": "COSMOS 1947 [GLONASS]",
        "OBJECT_ID": "1988-043B",
        "EPOCH": "2026-06-20T05:32:41.618400",
        "MEAN_MOTION": 2.13104004,
        "ECCENTRICITY": 0.0023735,
        "INCLINATION": 64.9658,
        "RA_OF_ASC_NODE": 73.425,
        "ARG_OF_PERICENTER": 225.2542,
        "MEAN_ANOMALY": 313.3454,
        "EPHEMERIS_TYPE": 0,
        "CLASSIFICATION_TYPE": "U",
        "NORAD_CAT_ID": 19164,
        "ELEMENT_SET_NO": 999,
        "REV_AT_EPOCH": 29136,
        "BSTAR": 0,
        "MEAN_MOTION_DOT": -3.9e-07,
        "MEAN_MOTION_DDOT": 0
    },
    {
        "OBJECT_NAME": "COSMOS 1948 [GLONASS]",
        "OBJECT_ID": "1988-043C",
        "EPOCH": "2026-06-20T08:44:29.916096",
        "MEAN_MOTION": 2.1310271,
        "ECCENTRICITY": 0.0004435,
        "INCLINATION": 64.958,
        "RA_OF_ASC_NODE": 73.2173,
        "ARG_OF_PERICENTER": 322.6849,
        "MEAN_ANOMALY": 218.0584,
        "EPHEMERIS_TYPE": 0,
        "CLASSIFICATION_TYPE": "U",
        "NORAD_CAT_ID": 19165,
        "ELEMENT_SET_NO": 999,
        "REV_AT_EPOCH": 29607,
        "BSTAR": 0,
        "MEAN_MOTION_DOT": -4e-07,
        "MEAN_MOTION_DDOT": 0
    },
    {
        "OBJECT_NAME": "COSMOS 1970 [GLONASS]",
        "OBJECT_ID": "1988-085A",
        "EPOCH": "2026-06-19T15:26:29.640768",
        "MEAN_MOTION": 2.13101981,
        "ECCENTRICITY": 0.00093857,
        "INCLINATION": 65.2407,
        "RA_OF_ASC_NODE": 314.3938,
        "ARG_OF_PERICENTER": 41.4699,
        "MEAN_ANOMALY": 316.9046,
        "EPHEMERIS_TYPE": 0,
        "CLASSIFICATION_TYPE": "U",
        "NORAD_CAT_ID": 19501,
        "ELEMENT_SET_NO": 999,
        "REV_AT_EPOCH": 29382,
        "BSTAR": 0,
        "MEAN_MOTION_DOT": -5.9e-07,
        "MEAN_MOTION_DDOT": 0
    },
    {
        "OBJECT_NAME": "COSMOS 1971 [GLONASS]",
        "OBJECT_ID": "1988-085B",
        "EPOCH": "2026-06-20T08:32:12.919776",
        "MEAN_MOTION": 2.13101645,
        "ECCENTRICITY": 0.0022657,
        "INCLINATION": 65.2334,
        "RA_OF_ASC_NODE": 314.2868,
        "ARG_OF_PERICENTER": 15.4025,
        "MEAN_ANOMALY": 15.2874,
        "EPHEMERIS_TYPE": 0,
        "CLASSIFICATION_TYPE": "U",
        "NORAD_CAT_ID": 19502,
        "ELEMENT_SET_NO": 999,
        "REV_AT_EPOCH": 27942,
        "BSTAR": 0,
        "MEAN_MOTION_DOT": -6.2e-07,
        "MEAN_MOTION_DDOT": 0
    }
]